{
"type": "FeatureCollection",
"name": "poi",
"crs": { "type": "name", "properties": { "name": "urn:ogc:def:crs:OGC:1.3:CRS84" } },
"features": [
{ "type": "Feature", "properties": { "URL": "[:earth_americas:](1/Readme.md)", "POI": "1", "Name": "Antigua mina de caliza CEMEX, Guasca, Cundinamarca, Colombia", "Altitude": 3733.41, "Date": "2023-05-03", "Credit": "rcfdtools", "Category": "Technical field visit", "Link": "https://github.com/rcfdtools/R.GISMobile/tree/main/file/gis/POI/1/Readme.md" }, "geometry": { "type": "Point", "coordinates": [ -73.819836111111101, 4.712169444444444 ] } },
{ "type": "Feature", "properties": { "URL": "[:earth_americas:](10/Readme.md)", "POI": "10", "Name": "Arroyo San Antonio - Erosión remontante, La Jagua de Ibirico, Cesar, Colombia", "Altitude": 57.73, "Date": "2013-07-03", "Credit": "rcfdtools", "Category": "Technical field visit", "Link": "https://github.com/rcfdtools/R.GISMobile/tree/main/file/gis/POI/10/Readme.md" }, "geometry": { "type": "Point", "coordinates": [ -73.4627698, 9.5332223 ] } },
{ "type": "Feature", "properties": { "URL": "[:earth_americas:](11/Readme.md)", "POI": "11", "Name": "Arroyo San Antonio - Paso de vía en entrega Realineamiento #4, La Jagua de Ibirico, Cesar, Colombia", "Altitude": 39.24, "Date": "2013-07-03", "Credit": "rcfdtools", "Category": "Technical field visit", "Link": "https://github.com/rcfdtools/R.GISMobile/tree/main/file/gis/POI/11/Readme.md" }, "geometry": { "type": "Point", "coordinates": [ -73.5215662, 9.5384802 ] } },
{ "type": "Feature", "properties": { "URL": "[:earth_americas:](12/Readme.md)", "POI": "12", "Name": "Arroyo San Antonio - Erosión remontante - Estructuras de agradación, La Jagua de Ibirico, Cesar, Colombia", "Altitude": 56.84, "Date": "2018-04-25", "Credit": "rcfdtools", "Category": "Technical field visit", "Link": "https://github.com/rcfdtools/R.GISMobile/tree/main/file/gis/POI/12/Readme.md" }, "geometry": { "type": "Point", "coordinates": [ -73.462601, 9.531024 ] } },
{ "type": "Feature", "properties": { "URL": "[:earth_americas:](13/Readme.md)", "POI": "13", "Name": "Arroyo San Antonio - Realineamiento # 4 - Construcción, inicio de operación y conformación, La Jagua de Ibirico, Cesar, Colombia", "Altitude": 60.0, "Date": "2018-04-25", "Credit": "rcfdtools & others", "Category": "Technical field visit", "Link": "https://github.com/rcfdtools/R.GISMobile/tree/main/file/gis/POI/13/Readme.md" }, "geometry": { "type": "Point", "coordinates": [ -73.507306, 9.528337 ] } },
{ "type": "Feature", "properties": { "URL": "[:earth_americas:](14/Readme.md)", "POI": "14", "Name": "Arroyo San Antonio - Paso de vía minero, La Jagua de Ibirico, Cesar, Colombia", "Altitude": 60.0, "Date": "2018-04-25", "Credit": "rcfdtools", "Category": "Technical field visit", "Link": "https://github.com/rcfdtools/R.GISMobile/tree/main/file/gis/POI/14/Readme.md" }, "geometry": { "type": "Point", "coordinates": [ -73.508897, 9.529024 ] } },
{ "type": "Feature", "properties": { "URL": "[:earth_americas:](15/Readme.md)", "POI": "15", "Name": "Arroyo San Antonio - Estructura escalonada - Entrega Caño Melánquez, La Jagua de Ibirico, Cesar, Colombia", "Altitude": 60.0, "Date": "2018-04-25", "Credit": "rcfdtools", "Category": "Technical field visit", "Link": "https://github.com/rcfdtools/R.GISMobile/tree/main/file/gis/POI/15/Readme.md" }, "geometry": { "type": "Point", "coordinates": [ -73.483261, 9.519911 ] } },
{ "type": "Feature", "properties": { "URL": "[:earth_americas:](16/Readme.md)", "POI": "16", "Name": "Arroyo San Antonio - Estructura escalonada, La Jagua de Ibirico, Cesar, Colombia", "Altitude": 60.0, "Date": "2018-04-25", "Credit": "rcfdtools", "Category": "Technical field visit", "Link": "https://github.com/rcfdtools/R.GISMobile/tree/main/file/gis/POI/16/Readme.md" }, "geometry": { "type": "Point", "coordinates": [ -73.469932, 9.517357 ] } },
{ "type": "Feature", "properties": { "URL": "[:earth_americas:](17/Readme.md)", "POI": "17", "Name": "Arroyo San Antonio - Realineamiento #4 - Construcción inicio desviación, La Jagua de Ibirico, Cesar, Colombia", "Altitude": 60.0, "Date": "2018-04-25", "Credit": "rcfdtools", "Category": "Technical field visit", "Link": "https://github.com/rcfdtools/R.GISMobile/tree/main/file/gis/POI/17/Readme.md" }, "geometry": { "type": "Point", "coordinates": [ -73.46366, 9.525125 ] } },
{ "type": "Feature", "properties": { "URL": "[:earth_americas:](18/Readme.md)", "POI": "18", "Name": "Arroyo Las Ánimas - Estructura de repartición, La Jagua de Ibirico, Cesar, Colombia", "Altitude": 60.0, "Date": "2022-04-27", "Credit": "rcfdtools & others", "Category": "Technical field visit", "Link": "https://github.com/rcfdtools/R.GISMobile/tree/main/file/gis/POI/18/Readme.md" }, "geometry": { "type": "Point", "coordinates": [ -73.518891, 9.492937 ] } },
{ "type": "Feature", "properties": { "URL": "[:earth_americas:](19/Readme.md)", "POI": "19", "Name": "A Arroyo San Antonio - Descarga piscina sedimentación, La Jagua de Ibirico, Cesar, Colombia", "Altitude": 70.0, "Date": "2022-04-27", "Credit": "rcfdtools", "Category": "Technical field visit", "Link": "https://github.com/rcfdtools/R.GISMobile/tree/main/file/gis/POI/19/Readme.md" }, "geometry": { "type": "Point", "coordinates": [ -73.506095, 9.528783 ] } },
{ "type": "Feature", "properties": { "URL": "[:earth_americas:](2/Readme.md)", "POI": "2", "Name": "Mirador Laguna Seca, La Calera, Cundinamarca, Colombia", "Altitude": 3730.03, "Date": "2023-05-03", "Credit": "rcfdtools", "Category": "Technical field visit", "Link": "https://github.com/rcfdtools/R.GISMobile/tree/main/file/gis/POI/2/Readme.md" }, "geometry": { "type": "Point", "coordinates": [ -73.792944444444444, 4.678047222222222 ] } },
{ "type": "Feature", "properties": { "URL": "[:earth_americas:](20/Readme.md)", "POI": "20", "Name": "Arroyo San Antonio - Paso de vía en entrega Realineamiento #4, La Jagua de Ibirico, Cesar, Colombia", "Altitude": 60.0, "Date": "2022-04-27", "Credit": "rcfdtools", "Category": "Technical field visit", "Link": "https://github.com/rcfdtools/R.GISMobile/tree/main/file/gis/POI/20/Readme.md" }, "geometry": { "type": "Point", "coordinates": [ -73.521755, 9.538404 ] } },
{ "type": "Feature", "properties": { "URL": "[:earth_americas:](21/Readme.md)", "POI": "21", "Name": "Canal de prueba - Realineamiento por retrollenado, La Jagua de Ibirico, Cesar, Colombia", "Altitude": 70.0, "Date": "2022-04-27", "Credit": "rcfdtools", "Category": "Technical field visit", "Link": "https://github.com/rcfdtools/R.GISMobile/tree/main/file/gis/POI/21/Readme.md" }, "geometry": { "type": "Point", "coordinates": [ -73.482781, 9.549353 ] } },
{ "type": "Feature", "properties": { "URL": "[:earth_americas:](22/Readme.md)", "POI": "22", "Name": "Visita técnica Universidad Escuela Colombiana de Ingeniería Julio Garavito a la ESP Villeta - Cundinamarca - Colombia. Agradecimientos especiales a la Ingeniera Ana Vitalia Gonzalez Suavita, gerente de la E.S.P. por concedernos este espacio y al Ingeniero Diego Mauricio Hernández Toro - Director técnico AAA, por compartir su experiencia profesional y conocimientos con los estudiantes y profesores. Información complementaria en https://espvilleta.gov.co", "Altitude": 855.14, "Date": "2024-05-10", "Credit": "rcfdtools", "Category": "Technical field visit", "Link": "https://github.com/rcfdtools/R.GISMobile/tree/main/file/gis/POI/22/Readme.md" }, "geometry": { "type": "Point", "coordinates": [ -74.4782647, 5.013062 ] } },
{ "type": "Feature", "properties": { "URL": "[:earth_americas:](23/Readme.md)", "POI": "23", "Name": "Visita técnica Universidad Escuela Colombiana de Ingeniería Julio Garavito con Empresas Públicas de Cundinamarca - EPC a la PTAP del municipio de Villapinzón - Cundinamarca - Colombia (aducción de 2km Ø8in a Ø6in, Q operación ±16 lps, cobertura de distribución urbana).", "Altitude": 2817.69, "Date": "2024-05-31", "Credit": "rcfdtools", "Category": "Technical field visit", "Link": "https://github.com/rcfdtools/R.GISMobile/tree/main/file/gis/POI/23/Readme.md" }, "geometry": { "type": "Point", "coordinates": [ -73.58726388, 5.21747777 ] } },
{ "type": "Feature", "properties": { "URL": "[:earth_americas:](24/Readme.md)", "POI": "24", "Name": "Rocky Mountain National Park (across the park, glacier, rocks, mountains), Colorado, U.S.", "Altitude": 3685.92, "Date": "2024-07-22", "Credit": "rcfdtools", "Category": "Freelance field visit", "Link": "https://github.com/rcfdtools/R.GISMobile/tree/main/file/gis/POI/24/Readme.md" }, "geometry": { "type": "Point", "coordinates": [ -105.663741, 40.400341 ] } },
{ "type": "Feature", "properties": { "URL": "[:earth_americas:](25/Readme.md)", "POI": "25", "Name": "Lake Estes & Spillway, Estes Park, Colorado, U.S.", "Altitude": 2271.29, "Date": "2024-07-22", "Credit": "rcfdtools", "Category": "Freelance field visit", "Link": "https://github.com/rcfdtools/R.GISMobile/tree/main/file/gis/POI/25/Readme.md" }, "geometry": { "type": "Point", "coordinates": [ -105.486357, 40.375469 ] } },
{ "type": "Feature", "properties": { "URL": "[:earth_americas:](26/Readme.md)", "POI": "26", "Name": "Southwest Greenbelt Park (open concrete channel with grass valey section) & gate structure, Englewood, Colorado, U.S.", "Altitude": 1633.14, "Date": "2024-07-27", "Credit": "rcfdtools", "Category": "Freelance field visit", "Link": "https://github.com/rcfdtools/R.GISMobile/tree/main/file/gis/POI/26/Readme.md" }, "geometry": { "type": "Point", "coordinates": [ -104.995979, 39.635192 ] } },
{ "type": "Feature", "properties": { "URL": "[:earth_americas:](27/Readme.md)", "POI": "27", "Name": "Big Thompson River, Estes Park, Colorado, U.S.", "Altitude": 2293.83, "Date": "2024-07-20", "Credit": "rcfdtools", "Category": "Freelance field visit", "Link": "https://github.com/rcfdtools/R.GISMobile/tree/main/file/gis/POI/27/Readme.md" }, "geometry": { "type": "Point", "coordinates": [ -105.518536, 40.3767 ] } },
{ "type": "Feature", "properties": { "URL": "[:earth_americas:](28/Readme.md)", "POI": "28", "Name": "Little Dry Creek (river junction), Englewood, Colorado, U.S.", "Altitude": 1616.93, "Date": "2024-07-21", "Credit": "rcfdtools", "Category": "Freelance field visit", "Link": "https://github.com/rcfdtools/R.GISMobile/tree/main/file/gis/POI/28/Readme.md" }, "geometry": { "type": "Point", "coordinates": [ -104.998175, 39.658778 ] } },
{ "type": "Feature", "properties": { "URL": "[:earth_americas:](29/Readme.md)", "POI": "29", "Name": "Cherry Creek River (Sinusoidal river design, downstream Cherry Creek Reservoir), Denver, Colorado, U.S.", "Altitude": 1654.01, "Date": "2024-07-21", "Credit": "rcfdtools", "Category": "Freelance field visit", "Link": "https://github.com/rcfdtools/R.GISMobile/tree/main/file/gis/POI/29/Readme.md" }, "geometry": { "type": "Point", "coordinates": [ -104.895472, 39.679556 ] } },
{ "type": "Feature", "properties": { "URL": "[:earth_americas:](3/Readme.md)", "POI": "3", "Name": "Campamento EAAB - Estación climatológica Chuza Monterredondo, Fómeque, Cundinamarca, Colombia", "Altitude": 3051.38, "Date": "2023-05-03", "Credit": "rcfdtools", "Category": "Technical field visit", "Link": "https://github.com/rcfdtools/R.GISMobile/tree/main/file/gis/POI/3/Readme.md" }, "geometry": { "type": "Point", "coordinates": [ -73.724572222222221, 4.634402777777777 ] } },
{ "type": "Feature", "properties": { "URL": "[:earth_americas:](30/Readme.md)", "POI": "30", "Name": "Pantano Redondo trail, Zipaquirá, Cundinamarca, Colombia", "Altitude": 3270.57, "Date": "2020-10-10", "Credit": "rcfdtools", "Category": "Freelance field visit", "Link": "https://github.com/rcfdtools/R.GISMobile/tree/main/file/gis/POI/30/Readme.md" }, "geometry": { "type": "Point", "coordinates": [ -74.026773, 5.054401 ] } },
{ "type": "Feature", "properties": { "URL": "[:earth_americas:](31/Readme.md)", "POI": "31", "Name": "Antena del Oso, Subachoque, Cundinamarca, Colombia", "Altitude": 3640.0, "Date": "2022-11-31", "Credit": "rcfdtools", "Category": "Freelance field visit", "Link": "https://github.com/rcfdtools/R.GISMobile/tree/main/file/gis/POI/31/Readme.md" }, "geometry": { "type": "Point", "coordinates": [ -74.137623, 5.056057 ] } },
{ "type": "Feature", "properties": { "URL": "[:earth_americas:](32/Readme.md)", "POI": "32", "Name": "Ruta Guecha, Suesca, Cundinamarca, Colombia", "Altitude": 3640.0, "Date": "2021-04-02", "Credit": "rcfdtools", "Category": "Freelance field visit", "Link": "https://github.com/rcfdtools/R.GISMobile/tree/main/file/gis/POI/32/Readme.md" }, "geometry": { "type": "Point", "coordinates": [ -73.823783, 5.108268 ] } },
{ "type": "Feature", "properties": { "URL": "[:earth_americas:](33/Readme.md)", "POI": "33", "Name": "Black Hawk, Colorado, U.S.", "Altitude": 2255.52, "Date": "2016-10-18", "Credit": "rcfdtools", "Category": "Freelance field visit", "Link": "https://github.com/rcfdtools/R.GISMobile/tree/main/file/gis/POI/33/Readme.md" }, "geometry": { "type": "Point", "coordinates": [ -105.44864, 39.767451 ] } },
{ "type": "Feature", "properties": { "URL": "[:earth_americas:](34/Readme.md)", "POI": "34", "Name": "Garden of Gods - Colorado Springs, Colorado, U.S.", "Altitude": 1951.0, "Date": "2018-05-25", "Credit": "rcfdtools", "Category": "Freelance field visit", "Link": "https://github.com/rcfdtools/R.GISMobile/tree/main/file/gis/POI/34/Readme.md" }, "geometry": { "type": "Point", "coordinates": [ -104.889951, 38.865713 ] } },
{ "type": "Feature", "properties": { "URL": "[:earth_americas:](35/Readme.md)", "POI": "35", "Name": "Red Rocks, Colorado, U.S.", "Altitude": 1966.0, "Date": "2020-01-05", "Credit": "rcfdtools", "Category": "Freelance field visit", "Link": "https://github.com/rcfdtools/R.GISMobile/tree/main/file/gis/POI/35/Readme.md" }, "geometry": { "type": "Point", "coordinates": [ -105.205656, 39.665453 ] } },
{ "type": "Feature", "properties": { "URL": "[:earth_americas:](36/Readme.md)", "POI": "36", "Name": "Visita Drummond 2013 - Departamento del Cesar - Colombia (varios)", "Altitude": 60.0, "Date": "2013-07-03", "Credit": "rcfdtools", "Category": "Technical field visit", "Link": "https://github.com/rcfdtools/R.GISMobile/tree/main/file/gis/POI/36/Readme.md" }, "geometry": { "type": "Point", "coordinates": [ -73.462601, 9.531024 ] } },
{ "type": "Feature", "properties": { "URL": "[:earth_americas:](37/Readme.md)", "POI": "37", "Name": "Visita Drummond 2018 - Departamento del Cesar - Colombia (varios)", "Altitude": 60.0, "Date": "2018-04-25", "Credit": "rcfdtools", "Category": "Technical field visit", "Link": "https://github.com/rcfdtools/R.GISMobile/tree/main/file/gis/POI/37/Readme.md" }, "geometry": { "type": "Point", "coordinates": [ -73.462601, 9.531024 ] } },
{ "type": "Feature", "properties": { "URL": "[:earth_americas:](38/Readme.md)", "POI": "38", "Name": "Visita Drummond 2022 - Departamento del Cesar - Colombia (varios)", "Altitude": 60.0, "Date": "2022-04-27", "Credit": "rcfdtools & others", "Category": "Technical field visit", "Link": "https://github.com/rcfdtools/R.GISMobile/tree/main/file/gis/POI/38/Readme.md" }, "geometry": { "type": "Point", "coordinates": [ -73.462601, 9.531024 ] } },
{ "type": "Feature", "properties": { "URL": "[:earth_americas:](39/Readme.md)", "POI": "39", "Name": "Mesa Verde National Park, Colorado, U.S.", "Altitude": 2560.0, "Date": "2019-05-21", "Credit": "rcfdtools", "Category": "Technical field visit", "Link": "https://github.com/rcfdtools/R.GISMobile/tree/main/file/gis/POI/39/Readme.md" }, "geometry": { "type": "Point", "coordinates": [ -108.488924, 37.184072 ] } },
{ "type": "Feature", "properties": { "URL": "[:earth_americas:](4/Readme.md)", "POI": "4", "Name": "Frailejones - Ruilopezia (Espeletia), Fómeque, Cundinamarca, Colombia", "Altitude": 3402.35, "Date": "2023-05-03", "Credit": "rcfdtools", "Category": "Technical field visit", "Link": "https://github.com/rcfdtools/R.GISMobile/tree/main/file/gis/POI/4/Readme.md" }, "geometry": { "type": "Point", "coordinates": [ -73.728655555555562, 4.585705555555555 ] } },
{ "type": "Feature", "properties": { "URL": "[:earth_americas:](40/Readme.md)", "POI": "40", "Name": "Royal Gorge Bridge & Park - Arkansas River, Canyon City, Colorado, U.S.", "Altitude": 1966.812, "Date": "2019-05-24", "Credit": "rcfdtools", "Category": "Freelance field visit", "Link": "https://github.com/rcfdtools/R.GISMobile/tree/main/file/gis/POI/40/Readme.md" }, "geometry": { "type": "Point", "coordinates": [ -105.322374, 38.463484 ] } },
{ "type": "Feature", "properties": { "URL": "[:earth_americas:](41/Readme.md)", "POI": "41", "Name": "Flatiron Reservoir and Spillway, Loveland, Colorado, U.S.", "Altitude": 1654.968, "Date": "2021-06-26", "Credit": "rcfdtools", "Category": "Freelance field visit", "Link": "https://github.com/rcfdtools/R.GISMobile/tree/main/file/gis/POI/41/Readme.md" }, "geometry": { "type": "Point", "coordinates": [ -105.23005497222222, 40.373648944444447 ] } },
{ "type": "Feature", "properties": { "URL": "[:earth_americas:](42/Readme.md)", "POI": "42", "Name": "Travel across Colorado - Utah - Nevada, U.S.", "Altitude": 1443.36, "Date": "2021-06-26", "Credit": "rcfdtools", "Category": "Freelance field visit", "Link": "https://github.com/rcfdtools/R.GISMobile/tree/main/file/gis/POI/42/Readme.md" }, "geometry": { "type": "Point", "coordinates": [ -108.40513475, 39.113985444444445 ] } },
{ "type": "Feature", "properties": { "URL": "[:earth_americas:](43/Readme.md)", "POI": "43", "Name": "Pike - San Isabel National Forest , Colorado, U.S.", "Altitude": 2051.54, "Date": "2024-01-07", "Credit": "rcfdtools", "Category": "Freelance field visit", "Link": "https://github.com/rcfdtools/R.GISMobile/tree/main/file/gis/POI/43/Readme.md" }, "geometry": { "type": "Point", "coordinates": [ -105.312263888, 39.407025 ] } },
{ "type": "Feature", "properties": { "URL": "[:earth_americas:](44/Readme.md)", "POI": "44", "Name": "Embalse del Neusa, Cogua, Cundinamarca, Colombia.", "Altitude": 2980.79, "Date": "2024-09-15", "Credit": "rcfdtools", "Category": "Freelance field visit", "Link": "https://github.com/rcfdtools/R.GISMobile/tree/main/file/gis/POI/44/Readme.md" }, "geometry": { "type": "Point", "coordinates": [ -73.969802777777787, 5.135966666666668 ] } },
{ "type": "Feature", "properties": { "URL": "[:earth_americas:](45/Readme.md)", "POI": "45", "Name": "Puente Sisga, I-55, Chocontá, Cundinamarca, Colombia", "Altitude": 2700.0, "Date": "2024-04-03", "Credit": "rcfdtools", "Category": "Freelance field visit", "Link": "https://github.com/rcfdtools/R.GISMobile/tree/main/file/gis/POI/45/Readme.md" }, "geometry": { "type": "Point", "coordinates": [ -73.726167, 5.083201 ] } },
{ "type": "Feature", "properties": { "URL": "[:earth_americas:](46/Readme.md)", "POI": "46", "Name": "Guachetá - Tausa - Santa Sofía - Villa de Leyva - Santana - Togui - Vélez - Barichara, San José de Suaita, Cundinamarca - Boyacá - Santander, Colombia", "Altitude": 1600.0, "Date": "2022-04-12", "Credit": "rcfdtools", "Category": "Freelance field visit", "Link": "https://github.com/rcfdtools/R.GISMobile/tree/main/file/gis/POI/46/Readme.md" }, "geometry": { "type": "Point", "coordinates": [ -73.490125, 6.047301 ] } },
{ "type": "Feature", "properties": { "URL": "[:earth_americas:](47/Readme.md)", "POI": "47", "Name": "Sopó - Pionono, Cundinamarca, Colombia", "Altitude": 3200.0, "Date": "2025-04-27", "Credit": "rcfdtools", "Category": "Freelance field visit", "Link": "https://github.com/rcfdtools/R.GISMobile/tree/main/file/gis/POI/47/Readme.md" }, "geometry": { "type": "Point", "coordinates": [ -73.920929, 4.905097 ] } },
{ "type": "Feature", "properties": { "URL": "[:earth_americas:](48/Readme.md)", "POI": "48", "Name": "Subachoque - Pantano de Arce, Cundinamarca, Colombia", "Altitude": 3200.0, "Date": "2025-04-11", "Credit": "rcfdtools", "Category": "Freelance field visit", "Link": "https://github.com/rcfdtools/R.GISMobile/tree/main/file/gis/POI/48/Readme.md" }, "geometry": { "type": "Point", "coordinates": [ -74.180353, 5.002233 ] } },
{ "type": "Feature", "properties": { "URL": "[:earth_americas:](49/Readme.md)", "POI": "49", "Name": "Laguna de Suesca, Cundinamarca, Colombia", "Altitude": 2840.0, "Date": "2025-08-07", "Credit": "rcfdtools", "Category": "Freelance field visit", "Link": "https://github.com/rcfdtools/R.GISMobile/tree/main/file/gis/POI/49/Readme.md" }, "geometry": { "type": "Point", "coordinates": [ -73.788042, 5.185168 ] } },
{ "type": "Feature", "properties": { "URL": "[:earth_americas:](5/Readme.md)", "POI": "5", "Name": "Localización futura presa Río La Playa - Guatiquía, Fómeque, Cundinamarca, Colombia", "Altitude": 3220.78, "Date": "2023-05-03", "Credit": "rcfdtools", "Category": "Technical field visit", "Link": "https://github.com/rcfdtools/R.GISMobile/tree/main/file/gis/POI/5/Readme.md" }, "geometry": { "type": "Point", "coordinates": [ -73.757088888888887, 4.5409 ] } },
{ "type": "Feature", "properties": { "URL": "[:earth_americas:](50/Readme.md)", "POI": "50", "Name": "San Martín, Meta, Colombia", "Altitude": 400.0, "Date": "2018-03-29", "Credit": "rcfdtools", "Category": "Freelance field visit", "Link": "https://github.com/rcfdtools/R.GISMobile/tree/main/file/gis/POI/50/Readme.md" }, "geometry": { "type": "Point", "coordinates": [ -73.701043, 3.708075 ] } },
{ "type": "Feature", "properties": { "URL": "[:earth_americas:](51/Readme.md)", "POI": "51", "Name": "Oicatá, Boyacá, Colombia", "Altitude": 2700.0, "Date": "2023-04-03", "Credit": "rcfdtools", "Category": "Freelance field visit", "Link": "https://github.com/rcfdtools/R.GISMobile/tree/main/file/gis/POI/51/Readme.md" }, "geometry": { "type": "Point", "coordinates": [ -73.283936, 5.610318 ] } },
{ "type": "Feature", "properties": { "URL": "[:earth_americas:](52/Readme.md)", "POI": "52", "Name": "Pauna, Boyacá, Colombia", "Altitude": 1100.0, "Date": "2018-07-08", "Credit": "rcfdtools", "Category": "Freelance field visit", "Link": "https://github.com/rcfdtools/R.GISMobile/tree/main/file/gis/POI/52/Readme.md" }, "geometry": { "type": "Point", "coordinates": [ -73.984318, 5.659578 ] } },
{ "type": "Feature", "properties": { "URL": "[:earth_americas:](53/Readme.md)", "POI": "53", "Name": "Ráquira, Boyacá, Colombia", "Altitude": 2200.0, "Date": "2017-08-20", "Credit": "rcfdtools", "Category": "Freelance field visit", "Link": "https://github.com/rcfdtools/R.GISMobile/tree/main/file/gis/POI/53/Readme.md" }, "geometry": { "type": "Point", "coordinates": [ -73.633589, 5.538295 ] } },
{ "type": "Feature", "properties": { "URL": "[:earth_americas:](54/Readme.md)", "POI": "54", "Name": "Saravena, Arauca, Colombia", "Altitude": 200.0, "Date": "2012-11-16", "Credit": "rcfdtools", "Category": "Freelance field visit", "Link": "https://github.com/rcfdtools/R.GISMobile/tree/main/file/gis/POI/54/Readme.md" }, "geometry": { "type": "Point", "coordinates": [ -71.863894, 6.93436 ] } },
{ "type": "Feature", "properties": { "URL": "[:earth_americas:](55/Readme.md)", "POI": "55", "Name": "Sevilla, Valle, Colombia", "Altitude": 1600.0, "Date": "2013-12-25", "Credit": "rcfdtools", "Category": "Freelance field visit", "Link": "https://github.com/rcfdtools/R.GISMobile/tree/main/file/gis/POI/55/Readme.md" }, "geometry": { "type": "Point", "coordinates": [ -75.934291, 4.264387 ] } },
{ "type": "Feature", "properties": { "URL": "[:earth_americas:](56/Readme.md)", "POI": "56", "Name": "Bailey - Georgetown - Guanella road - Xcel Energy Cabin Creek - Clear Lake - Green Lake, Colorado, USA", "Altitude": 3300.0, "Date": "2025-06-22", "Credit": "rcfdtools", "Category": "Freelance field visit", "Link": "https://github.com/rcfdtools/R.GISMobile/tree/main/file/gis/POI/56/Readme.md" }, "geometry": { "type": "Point", "coordinates": [ -105.709109, 39.649012 ] } },
{ "type": "Feature", "properties": { "URL": "[:earth_americas:](57/Readme.md)", "POI": "57", "Name": "Zipaquirá, Cundinamarca, Colombia", "Altitude": 2700.0, "Date": "2023-05-24", "Credit": "rcfdtools", "Category": "Freelance field visit", "Link": "https://github.com/rcfdtools/R.GISMobile/tree/main/file/gis/POI/57/Readme.md" }, "geometry": { "type": "Point", "coordinates": [ -74.009868, 5.018813 ] } },
{ "type": "Feature", "properties": { "URL": "[:earth_americas:](58/Readme.md)", "POI": "58", "Name": "The Guavio Dam - Ubalá - Gachala, Cundinamarca, Colombia. https://en.wikipedia.org/wiki/Alberto_Lleras_Dam", "Altitude": 1700.0, "Date": "2026-02-01", "Credit": "rcfdtools", "Category": "Freelance field visit", "Link": "https://github.com/rcfdtools/R.GISMobile/tree/main/file/gis/POI/58/Readme.md" }, "geometry": { "type": "Point", "coordinates": [ -73.483435, 4.726371 ] } },
{ "type": "Feature", "properties": { "URL": "[:earth_americas:](59/Readme.md)", "POI": "59", "Name": "La Cumbre - Cajicá, Cundinamarca, Colombia.", "Altitude": 2840.0, "Date": "2021-04-10", "Credit": "rcfdtools", "Category": "Freelance field visit", "Link": "https://github.com/rcfdtools/R.GISMobile/tree/main/file/gis/POI/59/Readme.md" }, "geometry": { "type": "Point", "coordinates": [ -74.050999, 4.940184 ] } },
{ "type": "Feature", "properties": { "URL": "[:earth_americas:](6/Readme.md)", "POI": "6", "Name": "Laguna Chingaza, Fómeque, Cundinamarca, Colombia", "Altitude": 3234.2, "Date": "2023-05-03", "Credit": "rcfdtools", "Category": "Technical field visit", "Link": "https://github.com/rcfdtools/R.GISMobile/tree/main/file/gis/POI/6/Readme.md" }, "geometry": { "type": "Point", "coordinates": [ -73.749636111111116, 4.532322222222223 ] } },
{ "type": "Feature", "properties": { "URL": "[:earth_americas:](60/Readme.md)", "POI": "60", "Name": "The Hato Dam (Ubaté) - Chegua Hill (Cármen de Carupa) - The Hanging Rock (Susa), Cundinamarca, Colombia. https://photos.app.goo.gl/wNTzDLmsNYUWWa6Q8", "Altitude": 3340.0, "Date": "2026-02-15", "Credit": "rcfdtools", "Category": "Freelance field visit", "Link": "https://github.com/rcfdtools/R.GISMobile/tree/main/file/gis/POI/60/Readme.md" }, "geometry": { "type": "Point", "coordinates": [ -73.84567, 5.425771 ] } },
{ "type": "Feature", "properties": { "URL": "[:earth_americas:](61/Readme.md)", "POI": "61", "Name": "Tobia, Cundinamarca, Colombia. https://photos.app.goo.gl/uV9decaL1GgRBgx97", "Altitude": 640.0, "Date": "2026-03-01", "Credit": "rcfdtools", "Category": "Freelance field visit", "Link": "https://github.com/rcfdtools/R.GISMobile/tree/main/file/gis/POI/61/Readme.md" }, "geometry": { "type": "Point", "coordinates": [ -74.450599, 5.122999 ] } },
{ "type": "Feature", "properties": { "URL": "[:earth_americas:](62/Readme.md)", "POI": "62", "Name": "Cascada de Angulo - El Peñon, Cundinamarca", "Altitude": 1020.0, "Date": "2026-03-01", "Credit": "rcfdtools", "Category": "Freelance field visit", "Link": "https://github.com/rcfdtools/R.GISMobile/tree/main/file/gis/POI/62/Readme.md" }, "geometry": { "type": "Point", "coordinates": [ -74.294128, 5.239061 ] } },
{ "type": "Feature", "properties": { "URL": "[:earth_americas:](63/Readme.md)", "POI": "63", "Name": "Transmicable Ciudad Bolivar - Bogotá D.C, Colombia", "Altitude": 2800.4959, "Date": "2026-09-12", "Credit": "rcfdtools", "Category": "Freelance field visit", "Link": "https://github.com/rcfdtools/R.GISMobile/tree/main/file/gis/POI/63/Readme.md" }, "geometry": { "type": "Point", "coordinates": [ -74.158741, 4.55022 ] } },
{ "type": "Feature", "properties": { "URL": "[:earth_americas:](64/Readme.md)", "POI": "64", "Name": "Monserrate and Bogotá Downtown - Bogotá D.C, Colombia", "Altitude": 3175.09, "Date": "2026-08-15", "Credit": "rcfdtools", "Category": "Freelance field visit", "Link": "https://github.com/rcfdtools/R.GISMobile/tree/main/file/gis/POI/64/Readme.md" }, "geometry": { "type": "Point", "coordinates": [ -74.055473, 4.605185 ] } },
{ "type": "Feature", "properties": { "URL": "[:earth_americas:](65/Readme.md)", "POI": "65", "Name": "Manitou Incline (2768 hiking steps) - Colorado Springs, Colorado, USA", "Altitude": 2600.18, "Date": "2026-08-15", "Credit": "rcfdtools", "Category": "Freelance field visit", "Link": "https://github.com/rcfdtools/R.GISMobile/tree/main/file/gis/POI/65/Readme.md" }, "geometry": { "type": "Point", "coordinates": [ -104.943374, 38.857989 ] } },
{ "type": "Feature", "properties": { "URL": "[:earth_americas:](66/Readme.md)", "POI": "66", "Name": "Pueblo Reservoir - Arkansas River - Pueblo, Colorado, USA", "Altitude": 1455.51, "Date": "2026-07-18", "Credit": "rcfdtools", "Category": "Freelance field visit", "Link": "https://github.com/rcfdtools/R.GISMobile/tree/main/file/gis/POI/66/Readme.md" }, "geometry": { "type": "Point", "coordinates": [ -104.724969, 38.268839 ] } },
{ "type": "Feature", "properties": { "URL": "[:earth_americas:](7/Readme.md)", "POI": "7", "Name": "Tunel derivador Río Guatiquía a Embalse Chuza, Fómeque, Cundinamarca, Colombia", "Altitude": 3074.0, "Date": "2023-05-03", "Credit": "rcfdtools", "Category": "Technical field visit", "Link": "https://github.com/rcfdtools/R.GISMobile/tree/main/file/gis/POI/7/Readme.md" }, "geometry": { "type": "Point", "coordinates": [ -73.728258333333329, 4.537927777777778 ] } },
{ "type": "Feature", "properties": { "URL": "[:earth_americas:](8/Readme.md)", "POI": "8", "Name": "Embalse Paujil, La Jagua de Ibirico, Cesar, Colombia", "Altitude": 71.31, "Date": "2013-07-03", "Credit": "rcfdtools", "Category": "Technical field visit", "Link": "https://github.com/rcfdtools/R.GISMobile/tree/main/file/gis/POI/8/Readme.md" }, "geometry": { "type": "Point", "coordinates": [ -73.458466, 9.559278 ] } },
{ "type": "Feature", "properties": { "URL": "[:earth_americas:](9/Readme.md)", "POI": "9", "Name": "Paso de vía Canal Paujil, La Jagua de Ibirico, Cesar, Colombia", "Altitude": 70.18, "Date": "2013-07-04", "Credit": "rcfdtools", "Category": "Technical field visit", "Link": "https://github.com/rcfdtools/R.GISMobile/tree/main/file/gis/POI/9/Readme.md" }, "geometry": { "type": "Point", "coordinates": [ -73.4642336, 9.5532847 ] } }
]
}
